{"type": "FeatureCollection", "features": [ {"type": "Feature", "properties": {"norad_id": 66995, "name": "2025-292C", "group": "last-30-days", "lat": 32.32542492126114, "lon": -115.01119007293302, "alt_km": 556.7453603658305, "timestamp": "2025-12-13T13:34:33.867063+00:00", "meta": {"OBJECT_NAME": "2025-292C", "OBJECT_ID": "2025-292C", "EPOCH": "2025-12-11T21:01:03.496224", "MEAN_MOTION": 15.04519537, "ECCENTRICITY": 0.0014385, "INCLINATION": 97.653, "RA_OF_ASC_NODE": 58.4343, "ARG_OF_PERICENTER": 277.3974, "MEAN_ANOMALY": 82.5617, "EPHEMERIS_TYPE": 0, "CLASSIFICATION_TYPE": "U", "NORAD_CAT_ID": 66995, "ELEMENT_SET_NO": 999, "REV_AT_EPOCH": 26, "BSTAR": 0.00011824, "MEAN_MOTION_DOT": 1.597e-05, "MEAN_MOTION_DDOT": 0}, "tle": {"line1": "1 66995U 25292C   25345.87573491  .00001597  00000+0  11824-3 0  9998", "line2": "2 66995  97.6530  58.4343 0014385 277.3974  82.5617 15.04519537   261"}}, "geometry": {"type": "Point", "coordinates": [-115.01119007293302, 32.32542492126114]}}, {"type": "Feature", "properties": {"norad_id": 66996, "name": "2025-292D", "group": "last-30-days", "lat": 31.58231321001085, "lon": -115.15030630856212, "alt_km": 556.4995605946424, "timestamp": "2025-12-13T13:34:33.867077+00:00", "meta": {"OBJECT_NAME": "2025-292D", "OBJECT_ID": "2025-292D", "EPOCH": "2025-12-11T21:00:57.670272", "MEAN_MOTION": 15.04579315, "ECCENTRICITY": 0.0013407, "INCLINATION": 97.652, "RA_OF_ASC_NODE": 58.4351, "ARG_OF_PERICENTER": 279.6596, "MEAN_ANOMALY": 80.3115, "EPHEMERIS_TYPE": 0, "CLASSIFICATION_TYPE": "U", "NORAD_CAT_ID": 66996, "ELEMENT_SET_NO": 999, "REV_AT_EPOCH": 26, "BSTAR": 0.00011811, "MEAN_MOTION_DOT": 1.598e-05, "MEAN_MOTION_DDOT": 0}, "tle": {"line1": "1 66996U 25292D   25345.87566748  .00001598  00000+0  11811-3 0  9993", "line2": "2 66996  97.6520  58.4351 0013407 279.6596  80.3115 15.04579315   268"}}, "geometry": {"type": "Point", "coordinates": [-115.15030630856212, 31.58231321001085]}}, {"type": "Feature", "properties": {"norad_id": 66997, "name": "2025-292E", "group": "last-30-days", "lat": 30.6686635055723, "lon": -115.31698118336374, "alt_km": 556.6189702422635, "timestamp": "2025-12-13T13:34:33.867086+00:00", "meta": {"OBJECT_NAME": "2025-292E", "OBJECT_ID": "2025-292E", "EPOCH": "2025-12-11T21:00:50.206176", "MEAN_MOTION": 15.04655353, "ECCENTRICITY": 0.0013781, "INCLINATION": 97.6541, "RA_OF_ASC_NODE": 58.4346, "ARG_OF_PERICENTER": 280.9887, "MEAN_ANOMALY": 78.9789, "EPHEMERIS_TYPE": 0, "CLASSIFICATION_TYPE": "U", "NORAD_CAT_ID": 66997, "ELEMENT_SET_NO": 999, "REV_AT_EPOCH": 25, "BSTAR": 0.00011812, "MEAN_MOTION_DOT": 1.601e-05, "MEAN_MOTION_DDOT": 0}, "tle": {"line1": "1 66997U 25292E   25345.87558109  .00001601  00000+0  11812-3 0  9992", "line2": "2 66997  97.6541  58.4346 0013781 280.9887  78.9789 15.04655353   255"}}, "geometry": {"type": "Point", "coordinates": [-115.31698118336374, 30.6686635055723]}}, {"type": "Feature", "properties": {"norad_id": 66998, "name": "2025-292F", "group": "last-30-days", "lat": 28.912109255168684, "lon": -115.62898539696998, "alt_km": 556.5288697920896, "timestamp": "2025-12-13T13:34:33.867096+00:00", "meta": {"OBJECT_NAME": "2025-292F", "OBJECT_ID": "2025-292F", "EPOCH": "2025-12-11T21:00:35.828352", "MEAN_MOTION": 15.04802497, "ECCENTRICITY": 0.0014607, "INCLINATION": 97.6565, "RA_OF_ASC_NODE": 58.4348, "ARG_OF_PERICENTER": 280.9703, "MEAN_ANOMALY": 78.988, "EPHEMERIS_TYPE": 0, "CLASSIFICATION_TYPE": "U", "NORAD_CAT_ID": 66998, "ELEMENT_SET_NO": 999, "REV_AT_EPOCH": 26, "BSTAR": 0.00011825, "MEAN_MOTION_DOT": 1.61e-05, "MEAN_MOTION_DDOT": 0}, "tle": {"line1": "1 66998U 25292F   25345.87541468  .00001610  00000+0  11825-3 0  9997", "line2": "2 66998  97.6565  58.4348 0014607 280.9703  78.9880 15.04802497   265"}}, "geometry": {"type": "Point", "coordinates": [-115.62898539696998, 28.912109255168684]}}, {"type": "Feature", "properties": {"norad_id": 66999, "name": "2025-292G", "group": "last-30-days", "lat": 28.144715686498294, "lon": -115.76099188994561, "alt_km": 556.5495884233051, "timestamp": "2025-12-13T13:34:33.867106+00:00", "meta": {"OBJECT_NAME": "2025-292G", "OBJECT_ID": "2025-292G", "EPOCH": "2025-12-11T21:00:29.832192", "MEAN_MOTION": 15.04867239, "ECCENTRICITY": 0.0014449, "INCLINATION": 97.6571, "RA_OF_ASC_NODE": 58.4362, "ARG_OF_PERICENTER": 282.848, "MEAN_ANOMALY": 77.1132, "EPHEMERIS_TYPE": 0, "CLASSIFICATION_TYPE": "U", "NORAD_CAT_ID": 66999, "ELEMENT_SET_NO": 999, "REV_AT_EPOCH": 26, "BSTAR": 0.00011819, "MEAN_MOTION_DOT": 1.612e-05, "MEAN_MOTION_DDOT": 0}, "tle": {"line1": "1 66999U 25292G   25345.87534528  .00001612  00000+0  11819-3 0  9992", "line2": "2 66999  97.6571  58.4362 0014449 282.8480  77.1132 15.04867239   262"}}, "geometry": {"type": "Point", "coordinates": [-115.76099188994561, 28.144715686498294]}}, {"type": "Feature", "properties": {"norad_id": 67000, "name": "2025-292H", "group": "last-30-days", "lat": 28.181592809318822, "lon": -115.7569175317594, "alt_km": 556.5818269318252, "timestamp": "2025-12-13T13:34:33.867114+00:00", "meta": {"OBJECT_NAME": "2025-292H", "OBJECT_ID": "2025-292H", "EPOCH": "2025-12-11T21:00:30.464640", "MEAN_MOTION": 15.04864273, "ECCENTRICITY": 0.0014339, "INCLINATION": 97.6576, "RA_OF_ASC_NODE": 58.4335, "ARG_OF_PERICENTER": 283.4517, "MEAN_ANOMALY": 76.5111, "EPHEMERIS_TYPE": 0, "CLASSIFICATION_TYPE": "U", "NORAD_CAT_ID": 67000, "ELEMENT_SET_NO": 999, "REV_AT_EPOCH": 13, "BSTAR": 0.00023206, "MEAN_MOTION_DOT": 3.225e-05, "MEAN_MOTION_DDOT": 0}, "tle": {"line1": "1 67000U 25292H   25345.87535260  .00003225  00000+0  23206-3 0  9995", "line2": "2 67000  97.6576  58.4335 0014339 283.4517  76.5111 15.04864273   138"}}, "geometry": {"type": "Point", "coordinates": [-115.7569175317594, 28.181592809318822]}}, {"type": "Feature", "properties": {"norad_id": 67001, "name": "2025-292J", "group": "last-30-days", "lat": 35.09568604719921, "lon": -114.46672344477496, "alt_km": 556.5156847427443, "timestamp": "2025-12-13T13:34:33.867123+00:00", "meta": {"OBJECT_NAME": "2025-292J", "OBJECT_ID": "2025-292J", "EPOCH": "2025-12-13T00:09:48.229344", "MEAN_MOTION": 15.04305175, "ECCENTRICITY": 0.00143373, "INCLINATION": 97.657, "RA_OF_ASC_NODE": 59.5551, "ARG_OF_PERICENTER": 267.9179, "MEAN_ANOMALY": 92.0405, "EPHEMERIS_TYPE": 0, "CLASSIFICATION_TYPE": "U", "NORAD_CAT_ID": 67001, "ELEMENT_SET_NO": 999, "REV_AT_EPOCH": 43, "BSTAR": 0.0006449792, "MEAN_MOTION_DOT": 8.947e-05, "MEAN_MOTION_DDOT": 0}, "tle": {"line1": "1 67001U 25292J   25347.00680821  .00008947  00000+0  64498-3 0  9991", "line2": "2 67001  97.6570  59.5551 0014337 267.9179  92.0405 15.04305175   437"}}, "geometry": {"type": "Point", "coordinates": [-114.46672344477496, 35.09568604719921]}}, {"type": "Feature", "properties": {"norad_id": 67002, "name": "ZK-1A R/B", "group": "last-30-days", "lat": 31.12650616756536, "lon": 55.709340297304145, "alt_km": 269.494504107608, "timestamp": "2025-12-13T13:34:33.867133+00:00", "meta": {"OBJECT_NAME": "ZK-1A R/B", "OBJECT_ID": "2025-292K", "EPOCH": "2025-12-12T23:32:42.568800", "MEAN_MOTION": 15.5461418, "ECCENTRICITY": 0.02202413, "INCLINATION": 97.724, "RA_OF_ASC_NODE": 59.7794, "ARG_OF_PERICENTER": 5.1197, "MEAN_ANOMALY": 355.2233, "EPHEMERIS_TYPE": 0, "CLASSIFICATION_TYPE": "U", "NORAD_CAT_ID": 67002, "ELEMENT_SET_NO": 999, "REV_AT_EPOCH": 43, "BSTAR": 0.0010305431, "MEAN_MOTION_DOT": 0.00208383, "MEAN_MOTION_DDOT": 1.3309637e-05}, "tle": {"line1": "1 67002U 25292K   25346.98104825  .00208383  13310-4  10305-2 0  9999", "line2": "2 67002  97.7240  59.7794 0220241   5.1197 355.2233 15.54614180   436"}}, "geometry": {"type": "Point", "coordinates": [55.709340297304145, 31.12650616756536]}}, {"type": "Feature", "properties": {"norad_id": 67059, "name": "HULIANWANG DIGUI 16A", "group": "last-30-days", "lat": 46.38611190686192, "lon": 126.97559327239097, "alt_km": 806.9123384925078, "timestamp": "2025-12-13T13:34:33.867143+00:00", "meta": {"OBJECT_NAME": "HULIANWANG DIGUI 16A", "OBJECT_ID": "2025-295A", "EPOCH": "2025-12-12T05:06:27.347328", "MEAN_MOTION": 14.25879966, "ECCENTRICITY": 0.00136284, "INCLINATION": 50.0035, "RA_OF_ASC_NODE": 14.4753, "ARG_OF_PERICENTER": 247.7813, "MEAN_ANOMALY": 112.1656, "EPHEMERIS_TYPE": 0, "CLASSIFICATION_TYPE": "U", "NORAD_CAT_ID": 67059, "ELEMENT_SET_NO": 999, "REV_AT_EPOCH": 4, "BSTAR": 3.434713e-06, "MEAN_MOTION_DOT": -1.52e-06, "MEAN_MOTION_DDOT": 0}, "tle": {"line1": "1 67059U 25295A   25346.21281652 -.00000152  00000+0  34347-5 0  9991", "line2": "2 67059  50.0035  14.4753 0013628 247.7813 112.1656 14.25879966    41"}}, "geometry": {"type": "Point", "coordinates": [126.97559327239097, 46.38611190686192]}}, {"type": "Feature", "properties": {"norad_id": 67060, "name": "HULIANWANG DIGUI 16B", "group": "last-30-days", "lat": 46.08693274907592, "lon": 128.05896771198897, "alt_km": 805.9482849430469, "timestamp": "2025-12-13T13:34:33.867152+00:00", "meta": {"OBJECT_NAME": "HULIANWANG DIGUI 16B", "OBJECT_ID": "2025-295B", "EPOCH": "2025-12-12T05:06:25.468992", "MEAN_MOTION": 14.26022254, "ECCENTRICITY": 0.0013423, "INCLINATION": 50.0012, "RA_OF_ASC_NODE": 14.4776, "ARG_OF_PERICENTER": 244.6732, "MEAN_ANOMALY": 115.2792, "EPHEMERIS_TYPE": 0, "CLASSIFICATION_TYPE": "U", "NORAD_CAT_ID": 67060, "ELEMENT_SET_NO": 999, "REV_AT_EPOCH": 4, "BSTAR": 4.398892e-06, "MEAN_MOTION_DOT": -1.5e-06, "MEAN_MOTION_DDOT": 0}, "tle": {"line1": "1 67060U 25295B   25346.21279478 -.00000150  00000+0  43989-5 0  9996", "line2": "2 67060  50.0012  14.4776 0013423 244.6732 115.2792 14.26022254    48"}}, "geometry": {"type": "Point", "coordinates": [128.05896771198897, 46.08693274907592]}}]}